#dP2024  5 22  0  0  0.00000000      96 __u+U IGS20 FIT  IAC
## 2315 259200.00000000   900.00000000 60452 0.0000000000000
+  127   C01C02C04C05C06C07C08C09C10C11C12C13C14C16C19C20C21
+        C22C23C24C25C26C27C28C29C30C32C33C34C35C36C37C38C39
+        C40C41C42C43C44C45C46C60E02E03E04E05E07E08E09E10E11
+        E12E13E14E15E18E19E21E24E25E26E27E30E31E33E34E36G01
+        G02G03G04G05G06G07G08G09G10G11G12G13G14G15G16G17G18
+        G19G20G21G22G23G24G25G26G27G28G29G30G31G32J02J03J04
+        J07R01R02R03R04R05R06R07R08R09R11R12R13R14R15R16R17
+        R18R19R20R21R22R23R24R25  0  0  0  0  0  0  0  0  0
++        17 17 17 17  9 10 12  9  9  9  9 11  9  9  7  7  7
++         7  7  7  7  8  7  7  7  7  7  7  7  8  7  7  8  0
++         8  7  8  7  8  8  7 17  4  4  4  4  4  4  4  4  4
++         4  4  4  4  5  5  5  4  4  4  5  4  4  5  4  4  7
++         4  4  4  4  4  4  4  4  4  4  4  4  4  4  4  4  4
++         4  4  4  4  4  4  4  4  4  4  4  4  4  4 11 10 11
++        17  7  6  6  6  6 15  6  8  6  6  6  8  6  6  6  6
++         6  8  8  6  6 15  6  8  0  0  0  0  0  0  0  0  0
%c M  cc GPS ccc cccc cccc cccc cccc ccccc ccccc ccccc ccccc
%c cc cc ccc ccc cccc cccc cccc cccc ccccc ccccc ccccc ccccc
%f  0.0000000  0.000000000  0.00000000000  0.000000000000000
%f  0.0000000  0.000000000  0.00000000000  0.000000000000000
%i    0    0    0    0      0      0      0      0         0
%i    0    0    0    0      0      0      0      0         0
/* INFORMATION & ANALYSIS CENTER (IAC)            RAPID DATA
/* S/V CLOCKS ARE ALIGNED TO GNSS TIME                      
/* G:C1WC2W R:C1PC2P E:C1XC5X C:C2IC6I J:C1CC2S             
/* PCV:IGS20_2290 OL/AL:FES2004  NONE     YN ORB:CoN CLK:CoN
*  2024 05 22 16 15  0.00000000
PC01 -34342.213013  24446.656992   -376.372839    898.001851
PC02   4422.615944  41952.409759   1433.906916    710.488062
PC04 -39631.811627  14345.998610   -780.407029   -530.831757
PC05  21901.040925  36037.283725   1353.960504   -756.060450
PC06   -794.454983  29893.848873  29916.796524    441.939004
PC07 -16836.842069  30214.911831 -24175.375916   -706.451754
PC08 -11140.137646  40418.616785  -3333.054023   -139.004869
PC09   5736.142586  33650.704867  25634.141998    218.468820
PC10  -8153.046568  30217.353162 -28141.690578      5.908763
PC11 -25996.060597  -8739.844649  -5125.080636    575.459711
PC12 -17325.931725 -17644.025213  12965.545520   -248.822603
PC13  -6091.962885  41443.119330   3440.536098    436.384521
PC14 -21827.163937   1524.559577 -17347.022412    915.756406
PC16  -3984.606082  27646.985319  31991.209453   -538.349893
PC19  24249.378574  -9475.784436  10023.195238   -912.929324
PC20  17036.326068   5385.155808  21435.966775   -492.090811
PC21   1254.115181 -18407.774469 -20910.295808   -968.805793
PC22  17964.610300 -19807.271706  -7919.065313      3.708649
PC23  -9187.380426  21019.885918  15898.133615   -780.796658
PC24 -13771.036005 -18159.491725  16109.043189    918.385433
PC25 -16107.433814   2561.961345  22635.000613    406.347991
PC26  -4028.663958 -27629.239006    350.990264   -294.949621
PC27   8895.374378  18511.953854 -18920.212162    316.453218
PC28  -9091.858118  13412.715427 -22719.250730    242.735959
PC29  24964.488160    509.313459  12452.019699    284.851287
PC30  23703.176738  13674.934404  -5537.006474    -83.494976
PC32  -1230.542944  18503.350261  20876.455519   -629.014515
PC33 -24208.117799   9606.272765 -10056.066236   -963.626270
PC34 -24456.914393 -12819.243503   3946.463447    439.278492
PC35   8991.095064 -13635.147203  22611.514008    356.824428
PC36  16156.226795  -2185.926999 -22623.929328     88.986464
PC37   3293.814555  27698.186526   -178.346820   -958.623978
PC38 -13961.418136  38430.828720  -9998.559255    156.684093
PC39      0.000000      0.000000      0.000000 999999.999999
PC40 -23612.059363  24233.671932 -25356.271415    -71.405699
PC41 -18456.314121  19711.841507   7144.903140   -954.351070
PC42 -15838.192980  -6733.775266 -21932.221352   -443.501363
PC43 -25322.071731  -1163.268323 -11663.479110     72.606651
PC44  -9381.021497 -18232.624690  18896.316113    480.956961
PC45   9249.383680 -20877.092012 -16054.135268    -87.850849
PC46  13896.020023  17518.298712 -16674.948127   -150.370554
PC60   7294.842503  41530.302652    103.527341     -0.884897
PE02  19133.887779  -3111.050535 -22377.772646    129.448921
PE03  29474.054550    534.756135   2574.202205   -115.413560
PE04 -22212.423858  11853.011168  15584.694785   -403.142498
PE05  19261.406756  12324.195691  18800.311382   4750.065310
PE07   2686.337849 -16967.939195 -24092.743295   -121.565118
PE08  22855.031845 -11338.972188 -14988.364114   -274.813942
PE09  -2845.679918  16832.831158  24189.542315   -452.199738
PE10  -3446.488994  20197.289061 -21373.832945   -626.802008
PE11   5202.116917  25467.634284 -14192.147661   2811.315936
PE12 -10798.583562  12600.094848 -24523.027820  -1049.596027
PE13  -4785.425765 -25239.990463  14691.217850    -21.739414
PE14  18620.663038  -9520.737163  10718.657448     44.909871
PE15  11136.886993 -12011.487081  24652.672597   -104.394541
PE18 -25242.813333  13259.855424 -15420.803179    140.047285
PE19 -29187.959462  -2004.345685  -4502.044427    -17.388519
PE21  -9173.137635 -16415.450009  22857.371997   -595.887948
PE24  -6796.234419  27119.805680  -9711.689629   -776.734037
PE25   8869.582698  16776.433969 -22712.899836      4.820317
PE26 -17903.245415 -23188.407698  -4227.206450    461.844459
PE27   6540.827169 -27102.206155   9951.179521   -355.918456
PE30  18334.216313 -21532.132698  -8766.361113   -326.699648
PE31 -18206.309803  21672.117750   8669.177518    -24.219662
PE33 -20368.851124  -8556.211257 -19703.969008     11.974319
PE34  20290.400873   8013.528632  19994.693119   -112.699367
PE36  17627.002109  23504.008664   3661.600838   -230.678152
PG01  -6105.278070  24579.301804  -7785.473698    270.342494
PG02  20715.816573  10760.963929  13414.200231   -431.590206
PG03  16114.774927  -1494.504024  20879.065979    376.422402
PG04  26289.849444   1628.915973   3961.254479    366.756732
PG05  -9347.152518 -14099.604114 -20631.577342   -173.627704
PG06  -1672.550279 -21276.678975  15796.538591    259.684629
PG07  13645.595228  -6922.918048 -21215.903774   -134.364368
PG08  21942.863403   7246.179105 -13572.577493    191.805094
PG09  23982.196667  -8192.645346  -8118.784184    205.973040
PG10 -10206.579043  24266.305134   1950.064739    -27.718358
PG11 -11423.910473 -23688.873546   3937.406506   -668.344258
PG12 -15885.188322  -1513.968840  20941.647189   -507.594572
PG13 -14367.487085 -13387.276370 -18198.287690    652.436040
PG14  13187.062447 -22839.069987  -1929.844495    407.048783
PG15 -22440.728634  -5253.918994 -13864.447517    161.832933
PG16   5607.536295  17286.847114 -19547.654389   -284.845522
PG17  14169.403178 -13107.591544  18734.139546    703.934874
PG18 -12737.278651   7766.210925 -21964.487724   -614.434013
PG19   3913.174689 -14721.896136  21541.631960    485.685459
PG20  -3821.455585 -22494.630903 -13659.965919    375.651429
PG21  20674.335071  15386.211979   8758.302934    120.094512
PG22   8937.920767 -24346.219543   6822.191251    -17.163571
PG23 -15724.390174  18749.961828 -10052.689941    231.803485
PG24 -20815.798857 -12850.656441  10417.178788   -471.885085
PG25 -17638.718433   8989.869096  17239.468739 999999.999999
PG26  -2317.533746  24735.094990  -9011.511720    148.995889
PG27  11701.830472  13185.692421 -20278.264312    -25.165766
PG28     36.463611  20280.452472  17140.318810   -255.164911
PG29 -25672.282752   4028.918458  -5831.610650   -597.434777
PG30   5410.370478 -17237.058080 -19235.650917   -386.375555
PG31   8324.285229  23516.209514   8308.014637   -227.739187
PG32 -10730.932962  14628.877130  19542.368249   -617.933332
PJ02 -33947.263199  24852.093146   8836.537489     -0.189204
PJ03 -21939.253733  19966.490778 -25340.511375      0.290665
PJ04 -27377.347792  32167.544872   8421.337487     50.319916
PJ07 -25391.080458  33672.950416     13.925465     -0.005285
PR01 -11716.637999  -5626.710627 -21946.870281     86.137308
PR02 -22444.743895   5052.836883 -10900.993716    -23.030743
PR03 -20653.932908  13462.945256   6486.105950    100.651648
PR04  -7892.071885  13938.309975  19881.546479    237.589755
PR05   9240.548859   7222.783182  22669.078247    131.880586
PR06  22603.118877  -6652.868319   9782.380865   -164.361763
PR07  20372.704993 -13620.062055  -7117.667941     82.950240
PR08   7574.737245 -14029.448626 -19857.558152     -4.028002
PR09  11295.907824    778.079027 -22836.908186    188.011931
PR11   2593.630045 -25248.842835  -2421.715480     23.869340
PR12  -6457.422662 -18865.925124  15940.906081     40.430620
PR13 -10779.481483  -3712.703181  22807.748477    -47.609946
PR14  -9058.749783  17070.171812  16677.513155     26.497802
PR15  -2043.715125  25418.398094    843.165007     79.564417
PR16   6319.340596  19047.957358 -15757.147344     25.811459
PR17 -11042.541679   4914.661113 -22466.955784     89.081385
PR18   4308.875687  14407.734130 -20610.435639    143.319490
PR19  15884.253844  17367.327031  -9839.235887   -277.569715
PR20  20910.364723   9456.580894  11181.499067   -113.242839
PR21  11133.871616  -4663.945261  22459.872501   -102.951146
PR22  -4723.737782 -15238.030379  19920.535852    110.101372
PR23 -18168.625674 -16613.381892   6653.268206   -121.629107
PR24 -21302.196278  -7974.594239 -11550.919415    -56.843347
PR25  11143.142835  -4950.421011  22402.800390    -37.659032
EOF
